CCSDS_OMM_VERS = 2.0
CREATION_DATE  = 
ORIGINATOR     = 

OBJECT_NAME    = SL-16 R/B
OBJECT_ID      = 1993-016B
CENTER_NAME    = EARTH
REF_FRAME      = TEME
TIME_SYSTEM    = UTC
MEAN_ELEMENT_THEORY = SGP/SGP4

EPOCH          = 2025-12-28T11:11:32.631360
MEAN_MOTION    = 14.15294580
ECCENTRICITY   = .0008046
INCLINATION    = 71.0086
RA_OF_ASC_NODE = 4.7723
ARG_OF_PERICENTER = 66.0626
MEAN_ANOMALY   = 294.1339

EPHEMERIS_TYPE = 0
CLASSIFICATION_TYPE = U
NORAD_CAT_ID   = 22566
ELEMENT_SET_NO = 999
REV_AT_EPOCH   = 69209
BSTAR          = .11349E-3
MEAN_MOTION_DOT = .173E-5
MEAN_MOTION_DDOT = 0

CCSDS_OMM_VERS = 2.0
CREATION_DATE  = 
ORIGINATOR     = 

OBJECT_NAME    = COSMOS 2242
OBJECT_ID      = 1993-024A
CENTER_NAME    = EARTH
REF_FRAME      = TEME
TIME_SYSTEM    = UTC
MEAN_ELEMENT_THEORY = SGP/SGP4

EPOCH          = 2025-12-28T08:27:53.731008
MEAN_MOTION    = 14.96174699
ECCENTRICITY   = .0016218
INCLINATION    = 82.5195
RA_OF_ASC_NODE = 334.9208
ARG_OF_PERICENTER = 178.9470
MEAN_ANOMALY   = 181.1789

EPHEMERIS_TYPE = 0
CLASSIFICATION_TYPE = U
NORAD_CAT_ID   = 22626
ELEMENT_SET_NO = 999
REV_AT_EPOCH   = 76972
BSTAR          = .26989E-3
MEAN_MOTION_DOT = .3073E-4
MEAN_MOTION_DDOT = 0

CCSDS_OMM_VERS = 2.0
CREATION_DATE  = 
ORIGINATOR     = 

OBJECT_NAME    = SL-16 R/B
OBJECT_ID      = 1993-059B
CENTER_NAME    = EARTH
REF_FRAME      = TEME
TIME_SYSTEM    = UTC
MEAN_ELEMENT_THEORY = SGP/SGP4

EPOCH          = 2025-12-28T09:37:54.285600
MEAN_MOTION    = 14.17217969
ECCENTRICITY   = .0018763
INCLINATION    = 70.9890
RA_OF_ASC_NODE = 161.4597
ARG_OF_PERICENTER = 313.5896
MEAN_ANOMALY   = 46.3669

EPHEMERIS_TYPE = 0
CLASSIFICATION_TYPE = U
NORAD_CAT_ID   = 22803
ELEMENT_SET_NO = 999
REV_AT_EPOCH   = 66943
BSTAR          = .13948E-3
MEAN_MOTION_DOT = .234E-5
MEAN_MOTION_DDOT = 0

CCSDS_OMM_VERS = 2.0
CREATION_DATE  = 
ORIGINATOR     = 

OBJECT_NAME    = ARIANE 40 R/B
OBJECT_ID      = 1993-061H
CENTER_NAME    = EARTH
REF_FRAME      = TEME
TIME_SYSTEM    = UTC
MEAN_ELEMENT_THEORY = SGP/SGP4

EPOCH          = 2025-12-28T02:54:35.338176
MEAN_MOTION    = 14.32811963
ECCENTRICITY   = .0011627
INCLINATION    = 98.5056
RA_OF_ASC_NODE = 67.3700
ARG_OF_PERICENTER = 132.8265
MEAN_ANOMALY   = 227.3898

EPHEMERIS_TYPE = 0
CLASSIFICATION_TYPE = U
NORAD_CAT_ID   = 22830
ELEMENT_SET_NO = 999
REV_AT_EPOCH   = 68385
BSTAR          = .13667027E-3
MEAN_MOTION_DOT = .33E-5
MEAN_MOTION_DDOT = 0

CCSDS_OMM_VERS = 2.0
CREATION_DATE  = 
ORIGINATOR     = 

OBJECT_NAME    = COSMOS 2278
OBJECT_ID      = 1994-023A
CENTER_NAME    = EARTH
REF_FRAME      = TEME
TIME_SYSTEM    = UTC
MEAN_ELEMENT_THEORY = SGP/SGP4

EPOCH          = 2025-12-28T07:22:57.681984
MEAN_MOTION    = 14.14349798
ECCENTRICITY   = .0007687
INCLINATION    = 71.0536
RA_OF_ASC_NODE = 324.4391
ARG_OF_PERICENTER = 151.3679
MEAN_ANOMALY   = 208.7867

EPHEMERIS_TYPE = 0
CLASSIFICATION_TYPE = U
NORAD_CAT_ID   = 23087
ELEMENT_SET_NO = 999
REV_AT_EPOCH   = 63471
BSTAR          = .14256E-3
MEAN_MOTION_DOT = .226E-5
MEAN_MOTION_DDOT = 0

CCSDS_OMM_VERS = 2.0
CREATION_DATE  = 
ORIGINATOR     = 

OBJECT_NAME    = SL-16 R/B
OBJECT_ID      = 1994-023B
CENTER_NAME    = EARTH
REF_FRAME      = TEME
TIME_SYSTEM    = UTC
MEAN_ELEMENT_THEORY = SGP/SGP4

EPOCH          = 2025-12-28T00:47:37.016448
MEAN_MOTION    = 14.14998750
ECCENTRICITY   = .0002235
INCLINATION    = 70.9973
RA_OF_ASC_NODE = 221.3700
ARG_OF_PERICENTER = 1.4781
MEAN_ANOMALY   = 358.6348

EPHEMERIS_TYPE = 0
CLASSIFICATION_TYPE = U
NORAD_CAT_ID   = 23088
ELEMENT_SET_NO = 999
REV_AT_EPOCH   = 63595
BSTAR          = -.522624E-4
MEAN_MOTION_DOT = -.149E-5
MEAN_MOTION_DDOT = 0

CCSDS_OMM_VERS = 2.0
CREATION_DATE  = 
ORIGINATOR     = 

OBJECT_NAME    = SL-16 R/B
OBJECT_ID      = 1994-074B
CENTER_NAME    = EARTH
REF_FRAME      = TEME
TIME_SYSTEM    = UTC
MEAN_ELEMENT_THEORY = SGP/SGP4

EPOCH          = 2025-12-28T02:19:57.512352
MEAN_MOTION    = 14.79307638
ECCENTRICITY   = .0008046
INCLINATION    = 97.7188
RA_OF_ASC_NODE = 30.7902
ARG_OF_PERICENTER = 93.9334
MEAN_ANOMALY   = 328.2631

EPHEMERIS_TYPE = 0
CLASSIFICATION_TYPE = U
NORAD_CAT_ID   = 23343
ELEMENT_SET_NO = 999
REV_AT_EPOCH   = 67666
BSTAR          = .94184E-4
MEAN_MOTION_DOT = .652E-5
MEAN_MOTION_DDOT = 0

CCSDS_OMM_VERS = 2.0
CREATION_DATE  = 
ORIGINATOR     = 

OBJECT_NAME    = SL-16 R/B
OBJECT_ID      = 1994-077B
CENTER_NAME    = EARTH
REF_FRAME      = TEME
TIME_SYSTEM    = UTC
MEAN_ELEMENT_THEORY = SGP/SGP4

EPOCH          = 2025-12-28T11:11:56.035392
MEAN_MOTION    = 14.15551226
ECCENTRICITY   = .0005043
INCLINATION    = 70.9824
RA_OF_ASC_NODE = 142.3286
ARG_OF_PERICENTER = 272.0407
MEAN_ANOMALY   = 88.0138

EPHEMERIS_TYPE = 0
CLASSIFICATION_TYPE = U
NORAD_CAT_ID   = 23405
ELEMENT_SET_NO = 999
REV_AT_EPOCH   = 60615
BSTAR          = -.94829E-4
MEAN_MOTION_DOT = -.233E-5
MEAN_MOTION_DDOT = 0

CCSDS_OMM_VERS = 2.0
CREATION_DATE  = 
ORIGINATOR     = 

OBJECT_NAME    = ARIANE 40+ R/B
OBJECT_ID      = 1995-021B
CENTER_NAME    = EARTH
REF_FRAME      = TEME
TIME_SYSTEM    = UTC
MEAN_ELEMENT_THEORY = SGP/SGP4

EPOCH          = 2025-12-28T10:24:28.274112
MEAN_MOTION    = 14.39707897
ECCENTRICITY   = .000664
INCLINATION    = 98.4632
RA_OF_ASC_NODE = 69.8318
ARG_OF_PERICENTER = 5.4465
MEAN_ANOMALY   = 5.4483

EPHEMERIS_TYPE = 0
CLASSIFICATION_TYPE = U
NORAD_CAT_ID   = 23561
ELEMENT_SET_NO = 999
REV_AT_EPOCH   = 60899
BSTAR          = .14538E-3
MEAN_MOTION_DOT = .412E-5
MEAN_MOTION_DDOT = 0

CCSDS_OMM_VERS = 2.0
CREATION_DATE  = 
ORIGINATOR     = 

OBJECT_NAME    = SL-16 R/B
OBJECT_ID      = 1995-058B
CENTER_NAME    = EARTH
REF_FRAME      = TEME
TIME_SYSTEM    = UTC
MEAN_ELEMENT_THEORY = SGP/SGP4

EPOCH          = 2025-12-28T06:11:39.720768
MEAN_MOTION    = 14.15481408
ECCENTRICITY   = .00145
INCLINATION    = 71.0218
RA_OF_ASC_NODE = 330.2229
ARG_OF_PERICENTER = 234.5408
MEAN_ANOMALY   = 125.4362

EPHEMERIS_TYPE = 0
CLASSIFICATION_TYPE = U
NORAD_CAT_ID   = 23705
ELEMENT_SET_NO = 999
REV_AT_EPOCH   = 55774
BSTAR          = .27416E-4
MEAN_MOTION_DOT = .6E-7
MEAN_MOTION_DDOT = 0

CCSDS_OMM_VERS = 2.0
CREATION_DATE  = 
ORIGINATOR     = 

OBJECT_NAME    = SL-16 R/B
OBJECT_ID      = 1996-051B
CENTER_NAME    = EARTH
REF_FRAME      = TEME
TIME_SYSTEM    = UTC
MEAN_ELEMENT_THEORY = SGP/SGP4

EPOCH          = 2025-12-28T08:27:59.734080
MEAN_MOTION    = 14.12398014
ECCENTRICITY   = .0019448
INCLINATION    = 70.7597
RA_OF_ASC_NODE = 326.2350
ARG_OF_PERICENTER = 242.2059
MEAN_ANOMALY   = 117.7089

EPHEMERIS_TYPE = 0
CLASSIFICATION_TYPE = U
NORAD_CAT_ID   = 24298
ELEMENT_SET_NO = 999
REV_AT_EPOCH   = 51157
BSTAR          = .35975E-4
MEAN_MOTION_DOT = .17E-6
MEAN_MOTION_DDOT = 0

CCSDS_OMM_VERS = 2.0
CREATION_DATE  = 
ORIGINATOR     = 

OBJECT_NAME    = ORBVIEW 2 (SEASTAR)
OBJECT_ID      = 1997-037A
CENTER_NAME    = EARTH
REF_FRAME      = TEME
TIME_SYSTEM    = UTC
MEAN_ELEMENT_THEORY = SGP/SGP4

EPOCH          = 2025-12-28T11:01:53.282208
MEAN_MOTION    = 14.35428946
ECCENTRICITY   = .0001205
INCLINATION    = 98.8465
RA_OF_ASC_NODE = 159.9306
ARG_OF_PERICENTER = 268.5354
MEAN_ANOMALY   = 91.5692

EPHEMERIS_TYPE = 0
CLASSIFICATION_TYPE = U
NORAD_CAT_ID   = 24883
ELEMENT_SET_NO = 999
REV_AT_EPOCH   = 49825
BSTAR          = .16567E-3
MEAN_MOTION_DOT = .429E-5
MEAN_MOTION_DDOT = 0

